[Satellite]
VERSION=1.1
NAME=CP9
NICKNAME=CP9
TLE1=1 44360U 19036X   19310.60547816  .00019303  00000-0  25877-3 0  9995
TLE2=2 44360 028.5176 042.4145 0373568 094.2470 270.0892 15.03657581020063
STATUS=0
